[{"OBJECT_NAME":"STARLINK-6182","OBJECT_ID":"2023-083C","EPOCH":"2026-03-09T09:47:51.413280","MEAN_MOTION":15.02534775,"ECCENTRICITY":0.00013505,"INCLINATION":43.0024,"RA_OF_ASC_NODE":83.6866,"ARG_OF_PERICENTER":261.6237,"MEAN_ANOMALY":98.4452,"EPHEMERIS_TYPE":0,"CLASSIFICATION_TYPE":"U","NORAD_CAT_ID":56878,"ELEMENT_SET_NO":999,"REV_AT_EPOCH":15162,"BSTAR":-7.617866e-6,"MEAN_MOTION_DOT":-3.07e-6,"MEAN_MOTION_DDOT":0},{"OBJECT_NAME":"CZ-6A DEB","OBJECT_ID":"2022-151CR","EPOCH":"2026-03-09T17:17:08.438784","MEAN_MOTION":15.11778726,"ECCENTRICITY":0.00454354,"INCLINATION":98.5417,"RA_OF_ASC_NODE":160.2576,"ARG_OF_PERICENTER":86.1357,"MEAN_ANOMALY":274.5063,"EPHEMERIS_TYPE":0,"CLASSIFICATION_TYPE":"U","NORAD_CAT_ID":54346,"ELEMENT_SET_NO":999,"REV_AT_EPOCH":17769,"BSTAR":0.0041471579,"MEAN_MOTION_DOT":0.00073134,"MEAN_MOTION_DDOT":0}]
